GLOBALSTAR M063         
1 26081U 00008A   25297.85464961 -.00000088  00000+0 -71792-4 0  9990
2 26081  51.9916 130.0718 0004272 189.4817 272.7545 11.86176606172962
GLOBALSTAR M062         
1 26082U 00008B   25297.79743877 -.00000109  00000+0 -74482-4 0  9993
2 26082  51.9846  74.6316 0007356  35.9125 111.9080 12.43475070512748
GLOBALSTAR M060         
1 26083U 00008C   25297.86163597 -.00000117  00000+0 -25719-3 0  9994
2 26083  52.0036  52.7967 0003420  42.6159 105.7744 12.17668872168167
GLOBALSTAR M064         
1 26084U 00008D   25297.23609525 -.00000062  00000+0  30799-3 0  9994
2 26084  52.0023 229.0087 0001484 334.6953  25.3806 11.88537799182443
GLOBALSTAR M065         
1 31571U 07020A   25297.96722086 -.00000016  00000+0  49008-3 0  9992
2 31571  51.9883 191.2557 0009154 234.1972 240.3181 12.62011363849791
GLOBALSTAR M069         
1 31573U 07020C   25297.90857016 -.00000070  00000+0  21235-3 0  9992
2 31573  52.0023 198.0539 0002532  36.8978  43.0163 12.23462602850009
GLOBALSTAR M072         
1 31574U 07020D   25297.71190855 -.00000063  00000+0  29185-3 0  9997
2 31574  51.9964   7.1432 0001189 194.0283 335.5584 11.91652433846904
GLOBALSTAR M071         
1 31576U 07020F   25297.83771567 -.00000083  00000+0  78345-4 0  9992
2 31576  52.0055 227.5276 0001450  30.1618   3.8638 12.18260503510744
